*******************************************************************************
Ephemeris / WWW_USER Mon Mar 24 07:00:10 2025 Pasadena, USA      / Horizons    
*******************************************************************************
Target body name: Pluto (999)                     {source: plu060_merged}
Center body name: Earth (399)                     {source: DE441}
Center-site name: Mauna Kea
*******************************************************************************
Start time      : A.D. 2018-Sep-13 04:36:00.0000 UT      
Stop  time      : A.D. 2018-Sep-13 15:59:00.0000 UT      
Step-size       : 1 minutes
*******************************************************************************
Target pole/equ : IAU_PLUTO                       {East-longitude positive}
Target radii    : 1188.3, 1188.3, 1188.3 km       {Equator_a, b, pole_c}       
Center geodetic : 204.5278, 19.8260847, 4.21024   {E-lon(deg),Lat(deg),Alt(km)}
Center cylindric: 204.5278, 6006.35451, 2151.0229 {E-lon(deg),Dxy(km),Dz(km)}
Center pole/equ : ITRF93                          {East-longitude positive}
Center radii    : 6378.137, 6378.137, 6356.752 km {Equator_a, b, pole_c}       
Target primary  : Sun
Vis. interferer : MOON (R_eq= 1737.400) km        {source: DE441}
Rel. light bend : Sun                             {source: plu060_merged}
Rel. lght bnd GM: 1.3271E+11 km^3/s^2                                          
Atmos refraction: NO (AIRLESS)
RA format       : HMS
Time format     : CAL 
Calendar mode   : Mixed Julian/Gregorian
RTS-only print  : NO       
EOP file        : eop.250321.p250617                                           
EOP coverage    : DATA-BASED 1962-JAN-20 TO 2025-MAR-21. PREDICTS-> 2025-JUN-16
Units conversion: 1 au= 149597870.700 km, c= 299792.458 km/s, 1 day= 86400.0 s 
Table cut-offs 1: Elevation (-90.0deg=NO ),Airmass (>38.000=NO), Daylight (YES)
Table cut-offs 2: Solar elongation (  0.0,180.0=NO ),Local Hour Angle( 0.0=NO )
Table cut-offs 3: RA/DEC angular rate (     0.0=NO )                           
*******************************************************************************
 Date__(UT)__HR:MN     R.A._________(ICRF)_________DEC
******************************************************
$$SOE
 2018-Sep-13 09:18     19 20 24.953430 -22 05 06.47008
 2018-Sep-13 09:19     19 20 24.951914 -22 05 06.47670
 2018-Sep-13 09:20     19 20 24.950399 -22 05 06.48331
 2018-Sep-13 09:21     19 20 24.948884 -22 05 06.48992
 2018-Sep-13 09:22     19 20 24.947369 -22 05 06.49653
 2018-Sep-13 09:23     19 20 24.945855 -22 05 06.50313
 2018-Sep-13 09:24     19 20 24.944341 -22 05 06.50974
 2018-Sep-13 09:25     19 20 24.942827 -22 05 06.51634
 2018-Sep-13 09:26     19 20 24.941314 -22 05 06.52295
 2018-Sep-13 09:27     19 20 24.939801 -22 05 06.52955
 2018-Sep-13 09:28     19 20 24.938288 -22 05 06.53615
 2018-Sep-13 09:29     19 20 24.936775 -22 05 06.54275
 2018-Sep-13 09:30     19 20 24.935263 -22 05 06.54935
 2018-Sep-13 09:31     19 20 24.933751 -22 05 06.55594
 2018-Sep-13 09:32     19 20 24.932239 -22 05 06.56254
 2018-Sep-13 09:33     19 20 24.930728 -22 05 06.56913
 2018-Sep-13 09:34     19 20 24.929217 -22 05 06.57572
 2018-Sep-13 09:35     19 20 24.927706 -22 05 06.58232
 2018-Sep-13 09:36     19 20 24.926196 -22 05 06.58891
 2018-Sep-13 09:37     19 20 24.924686 -22 05 06.59549
 2018-Sep-13 09:38     19 20 24.923176 -22 05 06.60208
 2018-Sep-13 09:39     19 20 24.921667 -22 05 06.60867
 2018-Sep-13 09:40     19 20 24.920158 -22 05 06.61525
 2018-Sep-13 09:41     19 20 24.918649 -22 05 06.62184
 2018-Sep-13 09:42     19 20 24.917141 -22 05 06.62842
 2018-Sep-13 09:43     19 20 24.915633 -22 05 06.63500
 2018-Sep-13 09:44     19 20 24.914125 -22 05 06.64158
 2018-Sep-13 09:45     19 20 24.912618 -22 05 06.64816
 2018-Sep-13 09:46     19 20 24.911111 -22 05 06.65474
 2018-Sep-13 09:47     19 20 24.909604 -22 05 06.66131
 2018-Sep-13 09:48     19 20 24.908097 -22 05 06.66789
 2018-Sep-13 09:49     19 20 24.906591 -22 05 06.67446
 2018-Sep-13 09:50     19 20 24.905085 -22 05 06.68104
 2018-Sep-13 09:51     19 20 24.903580 -22 05 06.68761
 2018-Sep-13 09:52     19 20 24.902075 -22 05 06.69418
 2018-Sep-13 09:53     19 20 24.900570 -22 05 06.70075
 2018-Sep-13 09:54     19 20 24.899066 -22 05 06.70731
 2018-Sep-13 09:55     19 20 24.897562 -22 05 06.71388
 2018-Sep-13 09:56     19 20 24.896058 -22 05 06.72045
 2018-Sep-13 09:57     19 20 24.894554 -22 05 06.72701
 2018-Sep-13 09:58     19 20 24.893051 -22 05 06.73358
 2018-Sep-13 09:59     19 20 24.891549 -22 05 06.74014
 2018-Sep-13 10:00     19 20 24.890046 -22 05 06.74670
 2018-Sep-13 10:01     19 20 24.888544 -22 05 06.75326
 2018-Sep-13 10:02     19 20 24.887042 -22 05 06.75982
 2018-Sep-13 10:03     19 20 24.885541 -22 05 06.76638
 2018-Sep-13 10:04     19 20 24.884040 -22 05 06.77293
 2018-Sep-13 10:05     19 20 24.882539 -22 05 06.77949
 2018-Sep-13 10:06     19 20 24.881039 -22 05 06.78604
 2018-Sep-13 10:07     19 20 24.879539 -22 05 06.79260
 2018-Sep-13 10:08     19 20 24.878039 -22 05 06.79915
 2018-Sep-13 10:09     19 20 24.876540 -22 05 06.80570
 2018-Sep-13 10:10     19 20 24.875041 -22 05 06.81225
 2018-Sep-13 10:11     19 20 24.873543 -22 05 06.81880
 2018-Sep-13 10:12     19 20 24.872044 -22 05 06.82535
 2018-Sep-13 10:13     19 20 24.870546 -22 05 06.83189
 2018-Sep-13 10:14     19 20 24.869049 -22 05 06.83844
 2018-Sep-13 10:15     19 20 24.867552 -22 05 06.84499
 2018-Sep-13 10:16     19 20 24.866055 -22 05 06.85153
 2018-Sep-13 10:17     19 20 24.864558 -22 05 06.85807
 2018-Sep-13 10:18     19 20 24.863062 -22 05 06.86461
 2018-Sep-13 10:19     19 20 24.861566 -22 05 06.87116
 2018-Sep-13 10:20     19 20 24.860071 -22 05 06.87770
 2018-Sep-13 10:21     19 20 24.858576 -22 05 06.88423
 2018-Sep-13 10:22     19 20 24.857081 -22 05 06.89077
 2018-Sep-13 10:23     19 20 24.855587 -22 05 06.89731
 2018-Sep-13 10:24     19 20 24.854093 -22 05 06.90385
 2018-Sep-13 10:25     19 20 24.852599 -22 05 06.91038
 2018-Sep-13 10:26     19 20 24.851106 -22 05 06.91691
 2018-Sep-13 10:27     19 20 24.849613 -22 05 06.92345
 2018-Sep-13 10:28     19 20 24.848120 -22 05 06.92998
 2018-Sep-13 10:29     19 20 24.846628 -22 05 06.93651
 2018-Sep-13 10:30     19 20 24.845136 -22 05 06.94304
 2018-Sep-13 10:31     19 20 24.843645 -22 05 06.94957
 2018-Sep-13 10:32     19 20 24.842154 -22 05 06.95610
 2018-Sep-13 10:33     19 20 24.840663 -22 05 06.96263
 2018-Sep-13 10:34     19 20 24.839173 -22 05 06.96915
 2018-Sep-13 10:35     19 20 24.837683 -22 05 06.97568
 2018-Sep-13 10:36     19 20 24.836193 -22 05 06.98220
 2018-Sep-13 10:37     19 20 24.834704 -22 05 06.98873
 2018-Sep-13 10:38     19 20 24.833215 -22 05 06.99525
 2018-Sep-13 10:39     19 20 24.831726 -22 05 07.00177
 2018-Sep-13 10:40     19 20 24.830238 -22 05 07.00830
 2018-Sep-13 10:41     19 20 24.828750 -22 05 07.01482
 2018-Sep-13 10:42     19 20 24.827263 -22 05 07.02134
 2018-Sep-13 10:43     19 20 24.825776 -22 05 07.02786
 2018-Sep-13 10:44     19 20 24.824289 -22 05 07.03437
 2018-Sep-13 10:45     19 20 24.822803 -22 05 07.04089
 2018-Sep-13 10:46     19 20 24.821317 -22 05 07.04741
 2018-Sep-13 10:47     19 20 24.819832 -22 05 07.05392
 2018-Sep-13 10:48     19 20 24.818346 -22 05 07.06044
 2018-Sep-13 10:49     19 20 24.816862 -22 05 07.06695
 2018-Sep-13 10:50     19 20 24.815377 -22 05 07.07347
 2018-Sep-13 10:51     19 20 24.813893 -22 05 07.07998
 2018-Sep-13 10:52     19 20 24.812409 -22 05 07.08649
 2018-Sep-13 10:53     19 20 24.810926 -22 05 07.09300
 2018-Sep-13 10:54     19 20 24.809443 -22 05 07.09951
 2018-Sep-13 10:55     19 20 24.807961 -22 05 07.10602
 2018-Sep-13 10:56     19 20 24.806478 -22 05 07.11253
 2018-Sep-13 10:57     19 20 24.804997 -22 05 07.11904
 2018-Sep-13 10:58     19 20 24.803515 -22 05 07.12555
 2018-Sep-13 10:59     19 20 24.802034 -22 05 07.13205
 2018-Sep-13 11:00     19 20 24.800554 -22 05 07.13856
 2018-Sep-13 11:01     19 20 24.799073 -22 05 07.14506
 2018-Sep-13 11:02     19 20 24.797593 -22 05 07.15157
 2018-Sep-13 11:03     19 20 24.796114 -22 05 07.15807
 2018-Sep-13 11:04     19 20 24.794635 -22 05 07.16457
 2018-Sep-13 11:05     19 20 24.793156 -22 05 07.17108
 2018-Sep-13 11:06     19 20 24.791678 -22 05 07.17758
 2018-Sep-13 11:07     19 20 24.790200 -22 05 07.18408
 2018-Sep-13 11:08     19 20 24.788722 -22 05 07.19058
 2018-Sep-13 11:09     19 20 24.787245 -22 05 07.19708
 2018-Sep-13 11:10     19 20 24.785768 -22 05 07.20358
 2018-Sep-13 11:11     19 20 24.784292 -22 05 07.21008
 2018-Sep-13 11:12     19 20 24.782816 -22 05 07.21658
 2018-Sep-13 11:13     19 20 24.781340 -22 05 07.22307
 2018-Sep-13 11:14     19 20 24.779865 -22 05 07.22957
 2018-Sep-13 11:15     19 20 24.778390 -22 05 07.23607
 2018-Sep-13 11:16     19 20 24.776915 -22 05 07.24256
 2018-Sep-13 11:17     19 20 24.775441 -22 05 07.24906
 2018-Sep-13 11:18     19 20 24.773967 -22 05 07.25555
 2018-Sep-13 11:19     19 20 24.772494 -22 05 07.26205
 2018-Sep-13 11:20     19 20 24.771021 -22 05 07.26854
 2018-Sep-13 11:21     19 20 24.769549 -22 05 07.27503
 2018-Sep-13 11:22     19 20 24.768076 -22 05 07.28152
 2018-Sep-13 11:23     19 20 24.766605 -22 05 07.28802
 2018-Sep-13 11:24     19 20 24.765133 -22 05 07.29451
 2018-Sep-13 11:25     19 20 24.763662 -22 05 07.30100
 2018-Sep-13 11:26     19 20 24.762192 -22 05 07.30749
 2018-Sep-13 11:27     19 20 24.760721 -22 05 07.31398
 2018-Sep-13 11:28     19 20 24.759251 -22 05 07.32047
 2018-Sep-13 11:29     19 20 24.757782 -22 05 07.32695
 2018-Sep-13 11:30     19 20 24.756313 -22 05 07.33344
 2018-Sep-13 11:31     19 20 24.754844 -22 05 07.33993
 2018-Sep-13 11:32     19 20 24.753376 -22 05 07.34642
 2018-Sep-13 11:33     19 20 24.751908 -22 05 07.35290
 2018-Sep-13 11:34     19 20 24.750441 -22 05 07.35939
 2018-Sep-13 11:35     19 20 24.748974 -22 05 07.36588
 2018-Sep-13 11:36     19 20 24.747507 -22 05 07.37236
 2018-Sep-13 11:37     19 20 24.746041 -22 05 07.37885
 2018-Sep-13 11:38     19 20 24.744575 -22 05 07.38533
